{"type": "FeatureCollection", "features": [ {"type": "Feature", "properties": {"norad_id": 34464, "name": "COSMOS 2251 DEB", "group": "cosmos-2251-debris", "lat": 24.16493623401635, "lon": -108.24097950043034, "alt_km": 486.17546514160404, "timestamp": "2025-12-12T07:43:20.910160+00:00", "meta": {"OBJECT_NAME": "COSMOS 2251 DEB", "OBJECT_ID": "1993-036TH", "EPOCH": "2025-12-11T09:01:50.444256", "MEAN_MOTION": 15.26756078, "ECCENTRICITY": 0.00161263, "INCLINATION": 73.9889, "RA_OF_ASC_NODE": 81.1694, "ARG_OF_PERICENTER": 259.3082, "MEAN_ANOMALY": 100.6303, "EPHEMERIS_TYPE": 0, "CLASSIFICATION_TYPE": "U", "NORAD_CAT_ID": 34464, "ELEMENT_SET_NO": 999, "REV_AT_EPOCH": 89819, "BSTAR": 0.0054428677, "MEAN_MOTION_DOT": 0.00146564, "MEAN_MOTION_DDOT": 0}, "tle": {"line1": "1 34464U 93036TH  25345.37627829  .00146564  00000+0  54429-2 0  9996", "line2": "2 34464  73.9889  81.1694 0016126 259.3082 100.6303 15.26756078898196"}}, "geometry": {"type": "Point", "coordinates": [-108.24097950043034, 24.16493623401635]}}, {"type": "Feature", "properties": {"norad_id": 34468, "name": "COSMOS 2251 DEB", "group": "cosmos-2251-debris", "lat": 40.27652290020044, "lon": -76.07205661595376, "alt_km": 761.0480048366562, "timestamp": "2025-12-12T07:43:20.910170+00:00", "meta": {"OBJECT_NAME": "COSMOS 2251 DEB", "OBJECT_ID": "1993-036TM", "EPOCH": "2025-12-11T19:28:17.538240", "MEAN_MOTION": 14.47621059, "ECCENTRICITY": 0.00763639, "INCLINATION": 74.0129, "RA_OF_ASC_NODE": 118.9433, "ARG_OF_PERICENTER": 264.0661, "MEAN_ANOMALY": 95.179, "EPHEMERIS_TYPE": 0, "CLASSIFICATION_TYPE": "U", "NORAD_CAT_ID": 34468, "ELEMENT_SET_NO": 999, "REV_AT_EPOCH": 88448, "BSTAR": 0.00058701115, "MEAN_MOTION_DOT": 2.214e-05, "MEAN_MOTION_DDOT": 0}, "tle": {"line1": "1 34468U 93036TM  25345.81131410  .00002214  00000+0  58701-3 0  9996", "line2": "2 34468  74.0129 118.9433 0076363 264.0661  95.1790 14.47621059884481"}}, "geometry": {"type": "Point", "coordinates": [-76.07205661595376, 40.27652290020044]}}, {"type": "Feature", "properties": {"norad_id": 34472, "name": "COSMOS 2251 DEB", "group": "cosmos-2251-debris", "lat": -70.51704443865722, "lon": 45.06938556332158, "alt_km": 849.8177860181004, "timestamp": "2025-12-12T07:43:20.910181+00:00", "meta": {"OBJECT_NAME": "COSMOS 2251 DEB", "OBJECT_ID": "1993-036TR", "EPOCH": "2025-12-10T17:33:33.413472", "MEAN_MOTION": 13.70324681, "ECCENTRICITY": 0.03280455, "INCLINATION": 74.083, "RA_OF_ASC_NODE": 101.446, "ARG_OF_PERICENTER": 232.9036, "MEAN_ANOMALY": 124.1688, "EPHEMERIS_TYPE": 0, "CLASSIFICATION_TYPE": "U", "NORAD_CAT_ID": 34472, "ELEMENT_SET_NO": 999, "REV_AT_EPOCH": 83699, "BSTAR": 0.0010864797, "MEAN_MOTION_DOT": 1.379e-05, "MEAN_MOTION_DDOT": 0}, "tle": {"line1": "1 34472U 93036TR  25344.73163673  .00001379  00000+0  10865-2 0  9996", "line2": "2 34472  74.0830 101.4460 0328045 232.9036 124.1688 13.70324681836997"}}, "geometry": {"type": "Point", "coordinates": [45.06938556332158, -70.51704443865722]}}, {"type": "Feature", "properties": {"norad_id": 34474, "name": "COSMOS 2251 DEB", "group": "cosmos-2251-debris", "lat": -3.2832109887851253, "lon": -34.0297576705112, "alt_km": 770.2453759018235, "timestamp": "2025-12-12T07:43:20.910218+00:00", "meta": {"OBJECT_NAME": "COSMOS 2251 DEB", "OBJECT_ID": "1993-036TT", "EPOCH": "2025-12-11T23:29:16.389024", "MEAN_MOTION": 14.06404638, "ECCENTRICITY": 0.01982625, "INCLINATION": 74.0782, "RA_OF_ASC_NODE": 327.5072, "ARG_OF_PERICENTER": 41.5749, "MEAN_ANOMALY": 20.1974, "EPHEMERIS_TYPE": 0, "CLASSIFICATION_TYPE": "U", "NORAD_CAT_ID": 34474, "ELEMENT_SET_NO": 999, "REV_AT_EPOCH": 85498, "BSTAR": 0.0028350382, "MEAN_MOTION_DOT": 5.574e-05, "MEAN_MOTION_DDOT": 0}, "tle": {"line1": "1 34474U 93036TT  25345.97866191  .00005574  00000+0  28350-2 0  9999", "line2": "2 34474  74.0782 327.5072 0198262  41.5749  20.1974 14.06404638854989"}}, "geometry": {"type": "Point", "coordinates": [-34.0297576705112, -3.2832109887851253]}}, {"type": "Feature", "properties": {"norad_id": 34476, "name": "COSMOS 2251 DEB", "group": "cosmos-2251-debris", "lat": 9.420373872709353, "lon": 85.93745836227414, "alt_km": 860.1923432009498, "timestamp": "2025-12-12T07:43:20.910234+00:00", "meta": {"OBJECT_NAME": "COSMOS 2251 DEB", "OBJECT_ID": "1993-036TV", "EPOCH": "2025-12-09T17:08:07.616256", "MEAN_MOTION": 13.81979993, "ECCENTRICITY": 0.03198793, "INCLINATION": 74.0051, "RA_OF_ASC_NODE": 87.6033, "ARG_OF_PERICENTER": 307.827, "MEAN_ANOMALY": 49.429, "EPHEMERIS_TYPE": 0, "CLASSIFICATION_TYPE": "U", "NORAD_CAT_ID": 34476, "ELEMENT_SET_NO": 999, "REV_AT_EPOCH": 83596, "BSTAR": 0.0043301307, "MEAN_MOTION_DOT": 6.851e-05, "MEAN_MOTION_DDOT": 0}, "tle": {"line1": "1 34476U 93036TV  25343.71397704  .00006851  00000+0  43301-2 0  9992", "line2": "2 34476  74.0051  87.6033 0319879 307.8270  49.4290 13.81979993835962"}}, "geometry": {"type": "Point", "coordinates": [85.93745836227414, 9.420373872709353]}}, {"type": "Feature", "properties": {"norad_id": 34477, "name": "COSMOS 2251 DEB", "group": "cosmos-2251-debris", "lat": 30.883197231620265, "lon": -119.59695345204527, "alt_km": 719.4241389387671, "timestamp": "2025-12-12T07:43:20.910246+00:00", "meta": {"OBJECT_NAME": "COSMOS 2251 DEB", "OBJECT_ID": "1993-036TW", "EPOCH": "2025-12-11T08:15:25.533792", "MEAN_MOTION": 14.56849599, "ECCENTRICITY": 0.00768957, "INCLINATION": 73.9789, "RA_OF_ASC_NODE": 72.1607, "ARG_OF_PERICENTER": 259.5799, "MEAN_ANOMALY": 163.1164, "EPHEMERIS_TYPE": 0, "CLASSIFICATION_TYPE": "U", "NORAD_CAT_ID": 34477, "ELEMENT_SET_NO": 999, "REV_AT_EPOCH": 88605, "BSTAR": 0.0015311907, "MEAN_MOTION_DOT": 7.12e-05, "MEAN_MOTION_DDOT": 0}, "tle": {"line1": "1 34477U 93036TW  25345.34404553  .00007120  00000+0  15312-2 0  9996", "line2": "2 34477  73.9789  72.1607 0076895 259.5799 163.1164 14.56849599886053"}}, "geometry": {"type": "Point", "coordinates": [-119.59695345204527, 30.883197231620265]}}, {"type": "Feature", "properties": {"norad_id": 34478, "name": "COSMOS 2251 DEB", "group": "cosmos-2251-debris", "lat": -47.486427348944545, "lon": -10.444286240193499, "alt_km": 545.0514753733978, "timestamp": "2025-12-12T07:43:20.910256+00:00", "meta": {"OBJECT_NAME": "COSMOS 2251 DEB", "OBJECT_ID": "1993-036TX", "EPOCH": "2025-12-11T21:06:07.016832", "MEAN_MOTION": 15.0789624, "ECCENTRICITY": 0.00350384, "INCLINATION": 74.0401, "RA_OF_ASC_NODE": 8.6555, "ARG_OF_PERICENTER": 230.1524, "MEAN_ANOMALY": 198.2709, "EPHEMERIS_TYPE": 0, "CLASSIFICATION_TYPE": "U", "NORAD_CAT_ID": 34478, "ELEMENT_SET_NO": 999, "REV_AT_EPOCH": 88960, "BSTAR": 0.0034380756, "MEAN_MOTION_DOT": 0.00053866, "MEAN_MOTION_DDOT": 0}, "tle": {"line1": "1 34478U 93036TX  25345.87924788  .00053866  00000+0  34381-2 0  9997", "line2": "2 34478  74.0401   8.6555 0035038 230.1524 198.2709 15.07896240889608"}}, "geometry": {"type": "Point", "coordinates": [-10.444286240193499, -47.486427348944545]}}, {"type": "Feature", "properties": {"norad_id": 34481, "name": "COSMOS 2251 DEB", "group": "cosmos-2251-debris", "lat": 17.701198880739064, "lon": 59.4841465785525, "alt_km": 827.0314927362579, "timestamp": "2025-12-12T07:43:20.910267+00:00", "meta": {"OBJECT_NAME": "COSMOS 2251 DEB", "OBJECT_ID": "1993-036UA", "EPOCH": "2025-12-11T15:35:11.508864", "MEAN_MOTION": 14.32544739, "ECCENTRICITY": 0.00707512, "INCLINATION": 73.9804, "RA_OF_ASC_NODE": 55.4541, "ARG_OF_PERICENTER": 230.0025, "MEAN_ANOMALY": 282.1972, "EPHEMERIS_TYPE": 0, "CLASSIFICATION_TYPE": "U", "NORAD_CAT_ID": 34481, "ELEMENT_SET_NO": 999, "REV_AT_EPOCH": 87433, "BSTAR": 0.0011107531, "MEAN_MOTION_DOT": 3.072e-05, "MEAN_MOTION_DDOT": 0}, "tle": {"line1": "1 34481U 93036UA  25345.64943876  .00003072  00000+0  11108-2 0  9991", "line2": "2 34481  73.9804  55.4541 0070751 230.0025 282.1972 14.32544739874337"}}, "geometry": {"type": "Point", "coordinates": [59.4841465785525, 17.701198880739064]}}, {"type": "Feature", "properties": {"norad_id": 34482, "name": "COSMOS 2251 DEB", "group": "cosmos-2251-debris", "lat": 44.43730906367437, "lon": 28.102391876353735, "alt_km": 687.4131975792843, "timestamp": "2025-12-12T07:43:20.910278+00:00", "meta": {"OBJECT_NAME": "COSMOS 2251 DEB", "OBJECT_ID": "1993-036UB", "EPOCH": "2025-12-11T02:23:14.699616", "MEAN_MOTION": 14.69125321, "ECCENTRICITY": 0.00451191, "INCLINATION": 74.0368, "RA_OF_ASC_NODE": 226.7683, "ARG_OF_PERICENTER": 287.0577, "MEAN_ANOMALY": 224.4358, "EPHEMERIS_TYPE": 0, "CLASSIFICATION_TYPE": "U", "NORAD_CAT_ID": 34482, "ELEMENT_SET_NO": 999, "REV_AT_EPOCH": 88163, "BSTAR": 0.0028405288, "MEAN_MOTION_DOT": 0.00016972, "MEAN_MOTION_DDOT": 0}, "tle": {"line1": "1 34482U 93036UB  25345.09947569  .00016972  00000+0  28405-2 0  9995", "line2": "2 34482  74.0368 226.7683 0045119 287.0577 224.4358 14.69125321881639"}}, "geometry": {"type": "Point", "coordinates": [28.102391876353735, 44.43730906367437]}}, {"type": "Feature", "properties": {"norad_id": 34544, "name": "COSMOS 2251 DEB", "group": "cosmos-2251-debris", "lat": -7.9389114668923435, "lon": 27.01204745652674, "alt_km": 851.5800149856432, "timestamp": "2025-12-12T07:43:20.910288+00:00", "meta": {"OBJECT_NAME": "COSMOS 2251 DEB", "OBJECT_ID": "1993-036UE", "EPOCH": "2025-12-12T00:21:12.621888", "MEAN_MOTION": 13.54662124, "ECCENTRICITY": 0.03842077, "INCLINATION": 73.9143, "RA_OF_ASC_NODE": 205.2029, "ARG_OF_PERICENTER": 233.7808, "MEAN_ANOMALY": 260.6102, "EPHEMERIS_TYPE": 0, "CLASSIFICATION_TYPE": "U", "NORAD_CAT_ID": 34544, "ELEMENT_SET_NO": 999, "REV_AT_EPOCH": 82872, "BSTAR": 0.00036681319, "MEAN_MOTION_DOT": 3.79e-06, "MEAN_MOTION_DDOT": 0}, "tle": {"line1": "1 34544U 93036UE  25346.01472942  .00000379  00000+0  36681-3 0  9995", "line2": "2 34544  73.9143 205.2029 0384207 233.7808 260.6102 13.54662124828722"}}, "geometry": {"type": "Point", "coordinates": [27.01204745652674, -7.9389114668923435]}}]}